{"type": "FeatureCollection", "features": [ {"type": "Feature", "properties": {"norad_id": 35469, "name": "COSMOS 2251 DEB", "group": "cosmos-2251-debris", "lat": -38.114870664995195, "lon": -7.7615623633343125, "alt_km": 783.9700827329125, "timestamp": "2025-12-22T15:43:49.405812+00:00", "meta": {"OBJECT_NAME": "COSMOS 2251 DEB", "OBJECT_ID": "1993-036ALP", "EPOCH": "2025-12-20T07:36:40.266144", "MEAN_MOTION": 14.4982565, "ECCENTRICITY": 0.00765645, "INCLINATION": 74.0168, "RA_OF_ASC_NODE": 9.6263, "ARG_OF_PERICENTER": 163.1432, "MEAN_ANOMALY": 197.23, "EPHEMERIS_TYPE": 0, "CLASSIFICATION_TYPE": "U", "NORAD_CAT_ID": 35469, "ELEMENT_SET_NO": 999, "REV_AT_EPOCH": 88221, "BSTAR": 6.7527967e-05, "MEAN_MOTION_DOT": 2.41e-06, "MEAN_MOTION_DDOT": 0}, "tle": {"line1": "1 35469U 93036ALP 25354.31713271  .00000241  00000+0  67528-4 0  9990", "line2": "2 35469  74.0168   9.6263 0076564 163.1432 197.2300 14.49825650882216"}}, "geometry": {"type": "Point", "coordinates": [-7.7615623633343125, -38.114870664995195]}}, {"type": "Feature", "properties": {"norad_id": 35475, "name": "COSMOS 2251 DEB", "group": "cosmos-2251-debris", "lat": 12.91895433482564, "lon": -37.37798111076365, "alt_km": 653.3879237590818, "timestamp": "2025-12-22T15:43:49.405822+00:00", "meta": {"OBJECT_NAME": "COSMOS 2251 DEB", "OBJECT_ID": "1993-036ALV", "EPOCH": "2025-12-20T04:10:12.186624", "MEAN_MOTION": 14.69875936, "ECCENTRICITY": 0.00202744, "INCLINATION": 74.0213, "RA_OF_ASC_NODE": 151.2034, "ARG_OF_PERICENTER": 223.9843, "MEAN_ANOMALY": 135.9716, "EPHEMERIS_TYPE": 0, "CLASSIFICATION_TYPE": "U", "NORAD_CAT_ID": 35475, "ELEMENT_SET_NO": 999, "REV_AT_EPOCH": 65726, "BSTAR": 0.0012274408, "MEAN_MOTION_DOT": 7.339e-05, "MEAN_MOTION_DDOT": 0}, "tle": {"line1": "1 35475U 93036ALV 25354.17375216  .00007339  00000+0  12274-2 0  9995", "line2": "2 35475  74.0213 151.2034 0020274 223.9843 135.9716 14.69875936657261"}}, "geometry": {"type": "Point", "coordinates": [-37.37798111076365, 12.91895433482564]}}, {"type": "Feature", "properties": {"norad_id": 35476, "name": "COSMOS 2251 DEB", "group": "cosmos-2251-debris", "lat": -42.61898909828642, "lon": -123.2226267806617, "alt_km": 660.192809699387, "timestamp": "2025-12-22T15:43:49.405832+00:00", "meta": {"OBJECT_NAME": "COSMOS 2251 DEB", "OBJECT_ID": "1993-036ALW", "EPOCH": "2025-12-22T05:18:01.075392", "MEAN_MOTION": 14.75855397, "ECCENTRICITY": 0.00182514, "INCLINATION": 73.9775, "RA_OF_ASC_NODE": 42.298, "ARG_OF_PERICENTER": 19.5237, "MEAN_ANOMALY": 57.2254, "EPHEMERIS_TYPE": 0, "CLASSIFICATION_TYPE": "U", "NORAD_CAT_ID": 35476, "ELEMENT_SET_NO": 999, "REV_AT_EPOCH": 88027, "BSTAR": 0.0016720826, "MEAN_MOTION_DOT": 0.00011493, "MEAN_MOTION_DDOT": 0}, "tle": {"line1": "1 35476U 93036ALW 25356.22084578  .00011493  00000+0  16721-2 0  9999", "line2": "2 35476  73.9775  42.2980 0018251  19.5237  57.2254 14.75855397880278"}}, "geometry": {"type": "Point", "coordinates": [-123.2226267806617, -42.61898909828642]}}, {"type": "Feature", "properties": {"norad_id": 35580, "name": "COSMOS 2251 DEB", "group": "cosmos-2251-debris", "lat": -64.38568192651651, "lon": 124.82009754517203, "alt_km": 1071.1217355292274, "timestamp": "2025-12-22T15:43:49.405842+00:00", "meta": {"OBJECT_NAME": "COSMOS 2251 DEB", "OBJECT_ID": "1993-036ALX", "EPOCH": "2025-12-21T17:31:49.223712", "MEAN_MOTION": 13.83913818, "ECCENTRICITY": 0.02807945, "INCLINATION": 73.9009, "RA_OF_ASC_NODE": 163.4331, "ARG_OF_PERICENTER": 166.9266, "MEAN_ANOMALY": 193.9339, "EPHEMERIS_TYPE": 0, "CLASSIFICATION_TYPE": "U", "NORAD_CAT_ID": 35580, "ELEMENT_SET_NO": 999, "REV_AT_EPOCH": 62381, "BSTAR": 0.0017136916, "MEAN_MOTION_DOT": 2.557e-05, "MEAN_MOTION_DDOT": 0}, "tle": {"line1": "1 35580U 93036ALX 25355.73043083  .00002557  00000+0  17137-2 0  9999", "line2": "2 35580  73.9009 163.4331 0280794 166.9266 193.9339 13.83913818623810"}}, "geometry": {"type": "Point", "coordinates": [124.82009754517203, -64.38568192651651]}}, {"type": "Feature", "properties": {"norad_id": 35583, "name": "COSMOS 2251 DEB", "group": "cosmos-2251-debris", "lat": 42.499667837836014, "lon": -148.72451990146345, "alt_km": 1333.0263769107523, "timestamp": "2025-12-22T15:43:49.405852+00:00", "meta": {"OBJECT_NAME": "COSMOS 2251 DEB", "OBJECT_ID": "1993-036AMA", "EPOCH": "2025-12-22T06:38:14.014176", "MEAN_MOTION": 13.55351852, "ECCENTRICITY": 0.03850357, "INCLINATION": 73.9158, "RA_OF_ASC_NODE": 196.56, "ARG_OF_PERICENTER": 219.1539, "MEAN_ANOMALY": 138.1132, "EPHEMERIS_TYPE": 0, "CLASSIFICATION_TYPE": "U", "NORAD_CAT_ID": 35583, "ELEMENT_SET_NO": 999, "REV_AT_EPOCH": 82541, "BSTAR": 0.00079490953, "MEAN_MOTION_DOT": 8.63e-06, "MEAN_MOTION_DDOT": 0}, "tle": {"line1": "1 35583U 93036AMA 25356.27655109  .00000863  00000+0  79491-3 0  9990", "line2": "2 35583  73.9158 196.5600 0385035 219.1539 138.1132 13.55351852825417"}}, "geometry": {"type": "Point", "coordinates": [-148.72451990146345, 42.499667837836014]}}, {"type": "Feature", "properties": {"norad_id": 35585, "name": "COSMOS 2251 DEB", "group": "cosmos-2251-debris", "lat": -6.328374725968894, "lon": -29.970595505702285, "alt_km": 1061.076005006139, "timestamp": "2025-12-22T15:43:49.405862+00:00", "meta": {"OBJECT_NAME": "COSMOS 2251 DEB", "OBJECT_ID": "1993-036AMC", "EPOCH": "2025-12-21T09:07:18.442848", "MEAN_MOTION": 13.75269672, "ECCENTRICITY": 0.03103986, "INCLINATION": 73.9717, "RA_OF_ASC_NODE": 333.9847, "ARG_OF_PERICENTER": 244.5384, "MEAN_ANOMALY": 273.7703, "EPHEMERIS_TYPE": 0, "CLASSIFICATION_TYPE": "U", "NORAD_CAT_ID": 35585, "ELEMENT_SET_NO": 999, "REV_AT_EPOCH": 64182, "BSTAR": 0.00073727274, "MEAN_MOTION_DOT": 9.8e-06, "MEAN_MOTION_DDOT": 0}, "tle": {"line1": "1 35585U 93036AMC 25355.38007457  .00000980  00000+0  73727-3 0  9996", "line2": "2 35585  73.9717 333.9847 0310398 244.5384 273.7703 13.75269672641821"}}, "geometry": {"type": "Point", "coordinates": [-29.970595505702285, -6.328374725968894]}}, {"type": "Feature", "properties": {"norad_id": 35586, "name": "COSMOS 2251 DEB", "group": "cosmos-2251-debris", "lat": 62.65836337149852, "lon": -39.752949250841155, "alt_km": 1057.8186096217532, "timestamp": "2025-12-22T15:43:49.405872+00:00", "meta": {"OBJECT_NAME": "COSMOS 2251 DEB", "OBJECT_ID": "1993-036AMD", "EPOCH": "2025-12-18T14:35:36.885984", "MEAN_MOTION": 13.5208875, "ECCENTRICITY": 0.04044314, "INCLINATION": 74.0204, "RA_OF_ASC_NODE": 293.076, "ARG_OF_PERICENTER": 167.1463, "MEAN_ANOMALY": 11.7227, "EPHEMERIS_TYPE": 0, "CLASSIFICATION_TYPE": "U", "NORAD_CAT_ID": 35586, "ELEMENT_SET_NO": 999, "REV_AT_EPOCH": 60461, "BSTAR": 0.00023975249, "MEAN_MOTION_DOT": 2.44e-06, "MEAN_MOTION_DDOT": 0}, "tle": {"line1": "1 35586U 93036AMD 25352.60806581  .00000244  00000+0  23975-3 0  9997", "line2": "2 35586  74.0204 293.0760 0404431 167.1463  11.7227 13.52088750604613"}}, "geometry": {"type": "Point", "coordinates": [-39.752949250841155, 62.65836337149852]}}, {"type": "Feature", "properties": {"norad_id": 35587, "name": "COSMOS 2251 DEB", "group": "cosmos-2251-debris", "lat": -57.289788195272045, "lon": -114.35905555858373, "alt_km": 593.760677184744, "timestamp": "2025-12-22T15:43:49.405882+00:00", "meta": {"OBJECT_NAME": "COSMOS 2251 DEB", "OBJECT_ID": "1993-036AME", "EPOCH": "2025-12-21T20:41:18.597984", "MEAN_MOTION": 14.71550847, "ECCENTRICITY": 0.01023219, "INCLINATION": 74.0051, "RA_OF_ASC_NODE": 40.6582, "ARG_OF_PERICENTER": 226.293, "MEAN_ANOMALY": 132.9734, "EPHEMERIS_TYPE": 0, "CLASSIFICATION_TYPE": "U", "NORAD_CAT_ID": 35587, "ELEMENT_SET_NO": 999, "REV_AT_EPOCH": 66480, "BSTAR": 0.00023978572, "MEAN_MOTION_DOT": 1.58e-05, "MEAN_MOTION_DDOT": 0}, "tle": {"line1": "1 35587U 93036AME 25355.86202081  .00001580  00000+0  23979-3 0  9992", "line2": "2 35587  74.0051  40.6582 0102321 226.2930 132.9734 14.71550847664800"}}, "geometry": {"type": "Point", "coordinates": [-114.35905555858373, -57.289788195272045]}}, {"type": "Feature", "properties": {"norad_id": 35593, "name": "COSMOS 2251 DEB", "group": "cosmos-2251-debris", "lat": 6.246234711947082, "lon": 88.81250116464372, "alt_km": 822.3624681061201, "timestamp": "2025-12-22T15:43:49.405892+00:00", "meta": {"OBJECT_NAME": "COSMOS 2251 DEB", "OBJECT_ID": "1993-036AML", "EPOCH": "2025-12-22T03:07:10.854336", "MEAN_MOTION": 14.25629866, "ECCENTRICITY": 0.01050344, "INCLINATION": 74.0862, "RA_OF_ASC_NODE": 271.5473, "ARG_OF_PERICENTER": 275.9355, "MEAN_ANOMALY": 82.9829, "EPHEMERIS_TYPE": 0, "CLASSIFICATION_TYPE": "U", "NORAD_CAT_ID": 35593, "ELEMENT_SET_NO": 999, "REV_AT_EPOCH": 85199, "BSTAR": 0.00065796608, "MEAN_MOTION_DOT": 1.626e-05, "MEAN_MOTION_DDOT": 0}, "tle": {"line1": "1 35593U 93036AML 25356.12998674  .00001626  00000+0  65797-3 0  9994", "line2": "2 35593  74.0862 271.5473 0105034 275.9355  82.9829 14.25629866851991"}}, "geometry": {"type": "Point", "coordinates": [88.81250116464372, 6.246234711947082]}}, {"type": "Feature", "properties": {"norad_id": 35594, "name": "COSMOS 2251 DEB", "group": "cosmos-2251-debris", "lat": -5.393822033533682, "lon": -91.94598889478347, "alt_km": 586.9843273580709, "timestamp": "2025-12-22T15:43:49.405902+00:00", "meta": {"OBJECT_NAME": "COSMOS 2251 DEB", "OBJECT_ID": "1993-036AMM", "EPOCH": "2025-12-21T13:05:05.165088", "MEAN_MOTION": 14.8817141, "ECCENTRICITY": 0.0029279, "INCLINATION": 73.8068, "RA_OF_ASC_NODE": 88.7269, "ARG_OF_PERICENTER": 201.0189, "MEAN_ANOMALY": 158.9789, "EPHEMERIS_TYPE": 0, "CLASSIFICATION_TYPE": "U", "NORAD_CAT_ID": 35594, "ELEMENT_SET_NO": 999, "REV_AT_EPOCH": 88316, "BSTAR": 0.0013268, "MEAN_MOTION_DOT": 0.00012311, "MEAN_MOTION_DDOT": 0}, "tle": {"line1": "1 35594U 93036AMM 25355.54519867  .00012311  00000+0  13268-2 0  9991", "line2": "2 35594  73.8068  88.7269 0029279 201.0189 158.9789 14.88171410883168"}}, "geometry": {"type": "Point", "coordinates": [-91.94598889478347, -5.393822033533682]}}]}